[{"OBJECT_NAME":"STARLINK-11496 [DTC]","OBJECT_ID":"2024-237A","EPOCH":"2025-11-10T16:40:36.135552","MEAN_MOTION":15.7089715,"ECCENTRICITY":0.00016348,"INCLINATION":42.9992,"RA_OF_ASC_NODE":54.22,"ARG_OF_PERICENTER":266.2031,"MEAN_ANOMALY":93.8649,"EPHEMERIS_TYPE":0,"CLASSIFICATION_TYPE":"U","NORAD_CAT_ID":62267,"ELEMENT_SET_NO":999,"REV_AT_EPOCH":5433,"BSTAR":0.0013452814,"MEAN_MOTION_DOT":0.00176302,"MEAN_MOTION_DDOT":0},{"OBJECT_NAME":"STARLINK-11501 [DTC]","OBJECT_ID":"2024-237B","EPOCH":"2025-11-10T15:54:44.248032","MEAN_MOTION":15.70937082,"ECCENTRICITY":0.00012265,"INCLINATION":42.9991,"RA_OF_ASC_NODE":53.9609,"ARG_OF_PERICENTER":313.6757,"MEAN_ANOMALY":46.4009,"EPHEMERIS_TYPE":0,"CLASSIFICATION_TYPE":"U","NORAD_CAT_ID":62268,"ELEMENT_SET_NO":999,"REV_AT_EPOCH":5428,"BSTAR":0.002537375,"MEAN_MOTION_DOT":0.00340205,"MEAN_MOTION_DDOT":0},{"OBJECT_NAME":"STARLINK-11491 [DTC]","OBJECT_ID":"2024-237C","EPOCH":"2025-11-10T15:47:05.139168","MEAN_MOTION":15.70920458,"ECCENTRICITY":0.00012608,"INCLINATION":42.9972,"RA_OF_ASC_NODE":53.9155,"ARG_OF_PERICENTER":263.3828,"MEAN_ANOMALY":96.6896,"EPHEMERIS_TYPE":0,"CLASSIFICATION_TYPE":"U","NORAD_CAT_ID":62269,"ELEMENT_SET_NO":999,"REV_AT_EPOCH":5433,"BSTAR":0.0021889531,"MEAN_MOTION_DOT":0.00291485,"MEAN_MOTION_DDOT":0},{"OBJECT_NAME":"STARLINK-11479 [DTC]","OBJECT_ID":"2024-237D","EPOCH":"2025-11-10T08:32:14.039520","MEAN_MOTION":15.70828421,"ECCENTRICITY":0.00030479,"INCLINATION":43,"RA_OF_ASC_NODE":55.962,"ARG_OF_PERICENTER":279.6055,"MEAN_ANOMALY":80.4469,"EPHEMERIS_TYPE":0,"CLASSIFICATION_TYPE":"U","NORAD_CAT_ID":62270,"ELEMENT_SET_NO":999,"REV_AT_EPOCH":5428,"BSTAR":0.0023304219,"MEAN_MOTION_DOT":0.00309861,"MEAN_MOTION_DDOT":0},{"OBJECT_NAME":"STARLINK-11489 [DTC]","OBJECT_ID":"2024-237E","EPOCH":"2025-11-10T15:31:58.749600","MEAN_MOTION":15.70950044,"ECCENTRICITY":0.00029577,"INCLINATION":42.996,"RA_OF_ASC_NODE":54.7407,"ARG_OF_PERICENTER":308.0128,"MEAN_ANOMALY":52.0472,"EPHEMERIS_TYPE":0,"CLASSIFICATION_TYPE":"U","NORAD_CAT_ID":62271,"ELEMENT_SET_NO":999,"REV_AT_EPOCH":5432,"BSTAR":0.00098368976,"MEAN_MOTION_DOT":0.00128348,"MEAN_MOTION_DDOT":0},{"OBJECT_NAME":"STARLINK-11494 [DTC]","OBJECT_ID":"2024-237F","EPOCH":"2025-11-10T16:32:57.018912","MEAN_MOTION":15.70954327,"ECCENTRICITY":0.00026728,"INCLINATION":43.0001,"RA_OF_ASC_NODE":54.1737,"ARG_OF_PERICENTER":271.7733,"MEAN_ANOMALY":88.2829,"EPHEMERIS_TYPE":0,"CLASSIFICATION_TYPE":"U","NORAD_CAT_ID":62272,"ELEMENT_SET_NO":999,"REV_AT_EPOCH":5428,"BSTAR":0.0022629564,"MEAN_MOTION_DOT":0.00302182,"MEAN_MOTION_DDOT":0},{"OBJECT_NAME":"STARLINK-11333 [DTC]","OBJECT_ID":"2024-237G","EPOCH":"2025-11-10T15:16:41.248128","MEAN_MOTION":15.70949679,"ECCENTRICITY":0.0003419,"INCLINATION":42.9985,"RA_OF_ASC_NODE":54.6413,"ARG_OF_PERICENTER":314.231,"MEAN_ANOMALY":45.8277,"EPHEMERIS_TYPE":0,"CLASSIFICATION_TYPE":"U","NORAD_CAT_ID":62273,"ELEMENT_SET_NO":999,"REV_AT_EPOCH":5432,"BSTAR":0.0026347258,"MEAN_MOTION_DOT":0.00354075,"MEAN_MOTION_DDOT":0},{"OBJECT_NAME":"STARLINK-11504 [DTC]","OBJECT_ID":"2024-237H","EPOCH":"2025-11-10T16:25:18.831072","MEAN_MOTION":15.70897584,"ECCENTRICITY":8.45e-5,"INCLINATION":42.9979,"RA_OF_ASC_NODE":54.1291,"ARG_OF_PERICENTER":293.9148,"MEAN_ANOMALY":66.1631,"EPHEMERIS_TYPE":0,"CLASSIFICATION_TYPE":"U","NORAD_CAT_ID":62274,"ELEMENT_SET_NO":999,"REV_AT_EPOCH":5428,"BSTAR":0.0016034173,"MEAN_MOTION_DOT":0.00211113,"MEAN_MOTION_DDOT":0},{"OBJECT_NAME":"STARLINK-11495 [DTC]","OBJECT_ID":"2024-237J","EPOCH":"2025-11-10T14:08:03.772320","MEAN_MOTION":15.70896135,"ECCENTRICITY":0.00012118,"INCLINATION":42.9988,"RA_OF_ASC_NODE":55.1502,"ARG_OF_PERICENTER":245.3015,"MEAN_ANOMALY":114.7727,"EPHEMERIS_TYPE":0,"CLASSIFICATION_TYPE":"U","NORAD_CAT_ID":62275,"ELEMENT_SET_NO":999,"REV_AT_EPOCH":5426,"BSTAR":0.0021260868,"MEAN_MOTION_DOT":0.00282502,"MEAN_MOTION_DDOT":0},{"OBJECT_NAME":"STARLINK-11498 [DTC]","OBJECT_ID":"2024-237K","EPOCH":"2025-11-10T14:30:48.960576","MEAN_MOTION":15.70936443,"ECCENTRICITY":0.00019001,"INCLINATION":42.9994,"RA_OF_ASC_NODE":54.3835,"ARG_OF_PERICENTER":302.5041,"MEAN_ANOMALY":57.5643,"EPHEMERIS_TYPE":0,"CLASSIFICATION_TYPE":"U","NORAD_CAT_ID":62276,"ELEMENT_SET_NO":999,"REV_AT_EPOCH":5432,"BSTAR":0.0020094326,"MEAN_MOTION_DOT":0.00266922,"MEAN_MOTION_DDOT":0},{"OBJECT_NAME":"STARLINK-11484 [DTC]","OBJECT_ID":"2024-237L","EPOCH":"2025-11-10T16:17:39.951168","MEAN_MOTION":15.70928271,"ECCENTRICITY":0.00019798,"INCLINATION":42.9997,"RA_OF_ASC_NODE":54.0852,"ARG_OF_PERICENTER":277.1559,"MEAN_ANOMALY":82.9084,"EPHEMERIS_TYPE":0,"CLASSIFICATION_TYPE":"U","NORAD_CAT_ID":62277,"ELEMENT_SET_NO":999,"REV_AT_EPOCH":5433,"BSTAR":0.0021026865,"MEAN_MOTION_DOT":0.00279668,"MEAN_MOTION_DDOT":0},{"OBJECT_NAME":"STARLINK-11487 [DTC]","OBJECT_ID":"2024-237M","EPOCH":"2025-11-10T10:49:39.465408","MEAN_MOTION":15.70862805,"ECCENTRICITY":0.00035739,"INCLINATION":42.9994,"RA_OF_ASC_NODE":55.8315,"ARG_OF_PERICENTER":296.3693,"MEAN_ANOMALY":63.6808,"EPHEMERIS_TYPE":0,"CLASSIFICATION_TYPE":"U","NORAD_CAT_ID":62278,"ELEMENT_SET_NO":999,"REV_AT_EPOCH":5429,"BSTAR":0.0024338008,"MEAN_MOTION_DOT":0.00324693,"MEAN_MOTION_DDOT":0},{"OBJECT_NAME":"STARLINK-11499 [DTC]","OBJECT_ID":"2024-237N","EPOCH":"2025-11-10T14:09:22.531968","MEAN_MOTION":15.70894031,"ECCENTRICITY":0.00013025,"INCLINATION":42.9988,"RA_OF_ASC_NODE":55.156,"ARG_OF_PERICENTER":238.8891,"MEAN_ANOMALY":121.1849,"EPHEMERIS_TYPE":0,"CLASSIFICATION_TYPE":"U","NORAD_CAT_ID":62279,"ELEMENT_SET_NO":999,"REV_AT_EPOCH":5424,"BSTAR":0.0019231912,"MEAN_MOTION_DOT":0.0025461,"MEAN_MOTION_DDOT":0},{"OBJECT_NAME":"STARLINK-33548","OBJECT_ID":"2024-237P","EPOCH":"2025-11-10T22:09:09.996768","MEAN_MOTION":15.2762908,"ECCENTRICITY":0.0001678,"INCLINATION":43,"RA_OF_ASC_NODE":156.2299,"ARG_OF_PERICENTER":276.2492,"MEAN_ANOMALY":83.8169,"EPHEMERIS_TYPE":0,"CLASSIFICATION_TYPE":"U","NORAD_CAT_ID":62280,"ELEMENT_SET_NO":999,"REV_AT_EPOCH":5315,"BSTAR":0.0011810374,"MEAN_MOTION_DOT":0.0003243,"MEAN_MOTION_DDOT":0},{"OBJECT_NAME":"STARLINK-33544","OBJECT_ID":"2024-237Q","EPOCH":"2025-11-10T15:35:52.511712","MEAN_MOTION":15.27610292,"ECCENTRICITY":4.889e-5,"INCLINATION":42.9983,"RA_OF_ASC_NODE":168.8701,"ARG_OF_PERICENTER":205.97,"MEAN_ANOMALY":154.1127,"EPHEMERIS_TYPE":0,"CLASSIFICATION_TYPE":"U","NORAD_CAT_ID":62281,"ELEMENT_SET_NO":999,"REV_AT_EPOCH":5298,"BSTAR":0.0012785703,"MEAN_MOTION_DOT":0.00035122,"MEAN_MOTION_DDOT":0},{"OBJECT_NAME":"STARLINK-33560","OBJECT_ID":"2024-237R","EPOCH":"2025-11-10T23:00:44.848224","MEAN_MOTION":15.276183,"ECCENTRICITY":6.295e-5,"INCLINATION":42.9975,"RA_OF_ASC_NODE":166.8841,"ARG_OF_PERICENTER":275.1104,"MEAN_ANOMALY":84.9676,"EPHEMERIS_TYPE":0,"CLASSIFICATION_TYPE":"U","NORAD_CAT_ID":62282,"ELEMENT_SET_NO":999,"REV_AT_EPOCH":5294,"BSTAR":0.0011250728,"MEAN_MOTION_DOT":0.00030863,"MEAN_MOTION_DDOT":0}]
