STARLINK-11496 [DTC]    
1 62267U 24237A   25314.69486268  .00176302  00000+0  13453-2 0  9991
2 62267  42.9992  54.2200 0001634 266.2031  93.8649 15.70897150 54334
STARLINK-11501 [DTC]    
1 62268U 24237B   25314.66301213  .00340205  00000+0  25374-2 0  9995
2 62268  42.9991  53.9609 0001226 313.6757  46.4009 15.70937082 54289
STARLINK-11491 [DTC]    
1 62269U 24237C   25314.65769837  .00291485  00000+0  21890-2 0  9999
2 62269  42.9972  53.9155 0001260 263.3828  96.6896 15.70920458 54339
STARLINK-11479 [DTC]    
1 62270U 24237D   25314.35571805  .00309861  00000+0  23304-2 0  9994
2 62270  43.0000  55.9620 0003047 279.6055  80.4469 15.70828421 54289
STARLINK-11489 [DTC]    
1 62271U 24237E   25314.64720775  .00128348  00000+0  98369-3 0  9992
2 62271  42.9960  54.7407 0002957 308.0128  52.0472 15.70950044 54321
STARLINK-11494 [DTC]    
1 62272U 24237F   25314.68954883  .00302182  00000+0  22630-2 0  9993
2 62272  43.0001  54.1737 0002672 271.7733  88.2829 15.70954327 54282
STARLINK-11333 [DTC]    
1 62273U 24237G   25314.63658852  .00354075  00000+0  26347-2 0  9993
2 62273  42.9985  54.6413 0003419 314.2310  45.8277 15.70949679 54327
STARLINK-11504 [DTC]    
1 62274U 24237H   25314.68424573  .00211113  00000+0  16034-2 0  9997
2 62274  42.9979  54.1291 0000845 293.9148  66.1631 15.70897584 54284
STARLINK-11495 [DTC]    
1 62275U 24237J   25314.58893255  .00282502  00000+0  21261-2 0  9992
2 62275  42.9988  55.1502 0001211 245.3015 114.7727 15.70896135 54268
STARLINK-11498 [DTC]    
1 62276U 24237K   25314.60473334  .00266922  00000+0  20094-2 0  9999
2 62276  42.9994  54.3835 0001900 302.5041  57.5643 15.70936443 54321
STARLINK-11484 [DTC]    
1 62277U 24237L   25314.67893462  .00279668  00000+0  21027-2 0  9993
2 62277  42.9997  54.0852 0001979 277.1559  82.9084 15.70928271 54330
STARLINK-11487 [DTC]    
1 62278U 24237M   25314.45115122  .00324693  00000+0  24338-2 0  9997
2 62278  42.9994  55.8315 0003573 296.3693  63.6808 15.70862805 54290
STARLINK-11499 [DTC]    
1 62279U 24237N   25314.58984412  .00254610  00000+0  19232-2 0  9996
2 62279  42.9988  55.1560 0001302 238.8891 121.1849 15.70894031 54244
STARLINK-33548          
1 62280U 24237P   25314.92303237  .00032430  00000+0  11810-2 0  9994
2 62280  43.0000 156.2299 0001678 276.2492  83.8169 15.27629080 53154
STARLINK-33544          
1 62281U 24237Q   25314.64991333  .00035122  00000+0  12786-2 0  9998
2 62281  42.9983 168.8701 0000488 205.9700 154.1127 15.27610292 52980
STARLINK-33560          
1 62282U 24237R   25314.95885241  .00030863  00000+0  11251-2 0  9996
2 62282  42.9975 166.8841 0000629 275.1104  84.9676 15.27618300 52942
